{
    "links": {
        "self": "http://www.neowsapp.com/rest/v1/neo/3844012?api_key=iIulBulltgU6a56xZRHN4H3l9WmuAYTsLGpBGhQ2"
    },
    "id": "3844012",
    "neo_reference_id": "3844012",
    "name": "(2019 SW2)",
    "designation": "2019 SW2",
    "nasa_jpl_url": "http://ssd.jpl.nasa.gov/sbdb.cgi?sstr=3844012",
    "absolute_magnitude_h": 21.5,
    "estimated_diameter": {
        "kilometers": {
            "estimated_diameter_min": 0.1332155667,
            "estimated_diameter_max": 0.2978790628
        },
        "meters": {
            "estimated_diameter_min": 133.2155666981,
            "estimated_diameter_max": 297.8790627982
        },
        "miles": {
            "estimated_diameter_min": 0.0827762899,
            "estimated_diameter_max": 0.1850934111
        },
        "feet": {
            "estimated_diameter_min": 437.0589598459,
            "estimated_diameter_max": 977.2935443908
        }
    },
    "is_potentially_hazardous_asteroid": false,
    "close_approach_data": [
        {
            "close_approach_date": "2019-03-28",
            "close_approach_date_full": "2019-Mar-28 10:54",
            "epoch_date_close_approach": 1553770440000,
            "relative_velocity": {
                "kilometers_per_second": "17.1467622357",
                "kilometers_per_hour": "61728.3440486903",
                "miles_per_hour": "38355.5924451431"
            },
            "miss_distance": {
                "astronomical": "0.3844341281",
                "lunar": "149.5448758309",
                "kilometers": "57510526.719067147",
                "miles": "35735384.2314427486"
            },
            "orbiting_body": "Earth"
        },
        {
            "close_approach_date": "2019-09-06",
            "close_approach_date_full": "2019-Sep-06 04:11",
            "epoch_date_close_approach": 1567743060000,
            "relative_velocity": {
                "kilometers_per_second": "18.2078744567",
                "kilometers_per_hour": "65548.3480441643",
                "miles_per_hour": "40729.1943722197"
            },
            "miss_distance": {
                "astronomical": "0.1947817958",
                "lunar": "75.7701185662",
                "kilometers": "29138941.766454946",
                "miles": "18106098.8227164148"
            },
            "orbiting_body": "Earth"
        }
    ],
    "orbital_data": {
        "orbit_id": "1",
        "orbit_determination_date": "2019-09-24 12:42:02",
        "first_observation_date": "2019-09-20",
        "last_observation_date": "2019-09-24",
        "data_arc_in_days": 4,
        "observations_used": 16,
        "orbit_uncertainty": "9",
        "minimum_orbit_intersection": ".152667",
        "jupiter_tisserand_invariant": "4.244",
        "epoch_osculation": "2458750.5",
        "eccentricity": ".3934303017900399",
        "semi_major_axis": "1.524737410277835",
        "inclination": "33.36942816892951",
        "ascending_node_longitude": "172.4447394043143",
        "orbital_period": "687.6873110835644",
        "perihelion_distance": ".9248595108016625",
        "perihelion_argument": "101.940384248247",
        "aphelion_distance": "2.124615309754008",
        "perihelion_time": "2458666.161217888893",
        "mean_anomaly": "44.15082417640985",
        "mean_motion": ".5234937364668847",
        "equinox": "J2000",
        "orbit_class": {
            "orbit_class_type": "APO",
            "orbit_class_description": "Near-Earth asteroid orbits which cross the Earth’s orbit similar to that of 1862 Apollo",
            "orbit_class_range": "a (semi-major axis) > 1.0 AU; q (perihelion) < 1.017 AU"
        }
    },
    "is_sentry_object": false
}